[
    {
        "Altitude(m)": 605470.7962480318,
        "Argument of Periapsis(deg)": 0.0,
        "Eccentricity": 0.0,
        "Inclination(deg)": 60.0,
        "Latitude(deg)": 27.988226439830324,
        "Longitude(deg)": 72.26291808218323,
        "Mean Anomaly(deg)": 147.2727,
        "RAAN(deg)": 10.0,
        "Satellite Name": "Test1 53",
        "Satellite Number": 53,
        "Semi-Major Axis(m)": 6980739.136638005,
        "Time(s)": 0
    },
    {
        "Altitude(m)": 605395.834157601,
        "Argument of Periapsis(deg)": 0.00010418945913296404,
        "Eccentricity": 0.0,
        "Inclination(deg)": 60.0,
        "Latitude(deg)": 27.47391747705675,
        "Longitude(deg)": 72.61610654989066,
        "Mean Anomaly(deg)": 147.8928061454618,
        "RAAN(deg)": 9.999579950860259,
        "Satellite Name": "Test1 53",
        "Satellite Number": 53,
        "Semi-Major Axis(m)": 6980739.136638005,
        "Time(s)": 10
    }
]